STARLINK-1417           
1 45693U 20035AN  26068.26760737  .00034834  00000+0  19844-2 0  9996
2 45693  53.0515  56.2233 0002128 233.0338 127.0459 15.12514223318831
STARLINK-4636           
1 53731U 22107AH  26068.89790396  .00028566  00000+0  16595-2 0  9998
2 53731  53.2130 252.5823 0005397 143.7657 216.3703 15.11900784194629
